NORAD_CAT_ID,OBJECT_NAME,OBJECT_TYPE,EPOCH,MEAN_MOTION,ECCENTRICITY,INCLINATION,RA_OF_ASC_NODE,ARG_OF_PERICENTER,MEAN_ANOMALY,BSTAR,MEAN_MOTION_DOT,MEAN_MOTION_DDOT,TLE_LINE0,TLE_LINE1,TLE_LINE2,SEMIMAJOR_AXIS,PERIOD,APOGEE,PERIGEE,DECAYED
53916.0,STARLINK-5051,PAYLOAD,2023-12-17 06:42:43,15.08837465,0.0001706,53.2188,345.3164,108.3295,251.7883,3.9847e-05,3.46e-06,0.0,0 STARLINK-5051,1 53916U 22119AG  23351.27966709  .00000346  00000-0  39847-4 0  9997,2 53916  53.2188 345.3164 0001706 108.3295 251.7883 15.08837465 68893,6917.888,95.438,540.933,538.573,0.0
53916.0,STARLINK-5051,PAYLOAD,2023-12-18 03:22:43,15.08845229,0.0001587,53.2183,341.4514,105.7103,254.4065,0.00014392,2.004e-05,0.0,0 STARLINK-5051,1 53916U 22119AG  23352.14078071  .00002004  00000-0  14392-3 0  9990,2 53916  53.2183 341.4514 0001587 105.7103 254.4065 15.08845229 69025,6917.864,95.437,540.827,538.632,0.0
53916.0,STARLINK-5051,PAYLOAD,2023-12-18 06:33:29,15.08849166,0.0001635,53.2184,340.857,106.3999,253.7173,0.00018314,2.629e-05,0.0,0 STARLINK-5051,1 53916U 22119AG  23352.27325742  .00002629  00000-0  18314-3 0  9995,2 53916  53.2184 340.8570 0001635 106.3999 253.7173 15.08849166 69470,6917.852,95.437,540.848,538.586,0.0
53916.0,STARLINK-5051,PAYLOAD,2023-12-19 03:13:32,15.08823018,0.0001375,53.2168,336.9925,111.6999,248.414,-0.00017307,-3.04e-05,0.0,0 STARLINK-5051,1 53916U 22119AG  23353.13439911 -.00003040  00000-0 -17307-3 0  9996,2 53916  53.2168 336.9925 0001375 111.6999 248.4140 15.08823018 69172,6917.932,95.439,540.749,538.846,0.0
53916.0,STARLINK-5051,PAYLOAD,2023-12-19 06:24:18,15.08822593,0.0001461,53.2174,336.397,116.2587,243.8555,-0.00016919,-2.978e-05,0.0,0 STARLINK-5051,1 53916U 22119AG  23353.26688046 -.00002978  00000-0 -16919-3 0  9992,2 53916  53.2174 336.3970 0001461 116.2587 243.8555 15.08822593 69629,6917.934,95.439,540.809,538.788,0.0
53916.0,STARLINK-5051,PAYLOAD,2023-12-20 03:04:18,15.08838861,0.0001245,53.2175,332.5318,94.1356,265.9778,-3.6331e-07,-2.94e-06,0.0,0 STARLINK-5051,1 53916U 22119AG  23354.12799431 -.00000294  00000-0 -36331-6 0  9991,2 53916  53.2175 332.5318 0001245  94.1356 265.9778 15.08838861 69326,6917.884,95.438,540.61,538.888,0.0
53916.0,STARLINK-5051,PAYLOAD,2023-12-20 06:15:04,15.08853841,0.0001352,53.2176,331.9365,97.2549,262.8596,0.00024244,3.574e-05,0.0,0 STARLINK-5051,1 53916U 22119AG  23354.26046862  .00003574  00000-0  24244-3 0  9998,2 53916  53.2176 331.9365 0001352  97.2549 262.8596 15.08853841 69340,6917.838,95.437,540.638,538.768,0.0
53916.0,STARLINK-5051,PAYLOAD,2023-12-21 02:55:06,15.08845307,0.0001721,53.2188,328.069,63.754,296.3629,0.00033192,4.999e-05,0.0,0 STARLINK-5051,1 53916U 22119AG  23355.12159783  .00004999  00000-0  33192-3 0  9995,2 53916  53.2188 328.0690 0001721  63.7540 296.3629 15.08845307 69471,6917.864,95.437,540.92,538.539,0.0
53916.0,STARLINK-5051,PAYLOAD,2023-12-21 06:05:51,15.08851185,0.0001512,53.2194,327.4737,85.5023,274.6141,0.00040209,6.119e-05,0.0,0 STARLINK-5051,1 53916U 22119AG  23355.25407284  .00006119  00000-0  40209-3 0  9994,2 53916  53.2194 327.4737 0001512  85.5023 274.6141 15.08851185 69928,6917.846,95.437,540.757,538.665,0.0
53916.0,STARLINK-5051,PAYLOAD,2023-12-22 04:21:16,15.08845915,0.0002276,53.2187,323.3139,56.4774,303.6435,-1.7323e-05,-5.64e-06,0.0,0 STARLINK-5051,1 53916U 22119AG  23356.18143677 -.00000564  00000-0 -17323-4 0  9992,2 53916  53.2187 323.3139 0002276  56.4774 303.6435 15.08845915 69630,6917.862,95.437,541.302,538.153,0.0
53916.0,STARLINK-5051,PAYLOAD,2023-12-23 02:36:40,15.08841786,0.0001735,53.2177,319.1535,96.57,263.549,-5.3301e-05,-1.136e-05,0.0,0 STARLINK-5051,1 53916U 22119AG  23357.10879630 -.00001136  00000-0 -53301-4 0  9992,2 53916  53.2177 319.1535 0001735  96.5700 263.5490 15.08841786 69777,6917.875,95.437,540.94,538.54,0.0
53916.0,STARLINK-5051,PAYLOAD,2023-12-23 07:22:48,15.0884731,0.0001739,53.2187,318.2499,98.1429,261.976,4.7736e-07,-2.81e-06,0.0,0 STARLINK-5051,1 53916U 22119AG  23357.30751000 -.00000281  00000-0  47736-6 0  9990,2 53916  53.2187 318.2499 0001739  98.1429 261.9760 15.08847310 70231,6917.858,95.437,540.926,538.52,0.0
53916.0,STARLINK-5051,PAYLOAD,2023-12-23 21:41:17,15.08837122,0.0001747,53.2188,315.5688,115.0542,245.0632,-3.6847e-05,-8.74e-06,0.0,0 STARLINK-5051,1 53916U 22119AG  23357.90367753 -.00000874  00000-0 -36847-4 0  9992,2 53916  53.2188 315.5688 0001747 115.0542 245.0632 15.08837122 70327,6917.889,95.438,540.963,538.546,0.0
53916.0,STARLINK-5051,PAYLOAD,2023-12-24 04:02:50,15.08843503,0.0001957,53.2177,314.3934,79.9122,280.2091,0.00015583,2.193e-05,0.0,0 STARLINK-5051,1 53916U 22119AG  23358.16863865  .00002193  00000-0  15583-3 0  9993,2 53916  53.2177 314.3934 0001957  79.9122 280.2091 15.08843503 69936,6917.87,95.437,541.089,538.381,0.0
53916.0,STARLINK-5051,PAYLOAD,2023-12-25 03:53:37,15.08848667,0.0001805,53.2177,309.9292,106.5278,253.5912,0.0001208,1.635e-05,0.0,0 STARLINK-5051,1 53916U 22119AG  23359.16223404  .00001635  00000-0  12080-3 0  9992,2 53916  53.2177 309.9292 0001805 106.5278 253.5912 15.08848667 70511,6917.854,95.437,540.968,538.47,0.0
53916.0,STARLINK-5051,PAYLOAD,2023-12-25 19:47:28,15.08836994,0.0002049,53.2183,306.9568,126.2693,233.8488,6.3987e-05,7.3e-06,0.0,0 STARLINK-5051,1 53916U 22119AG  23359.82463768  .00000730  00000-0  63987-4 0  9992,2 53916  53.2183 306.9568 0002049 126.2693 233.8488 15.08836994 70184,6917.89,95.438,541.172,538.337,0.0
53916.0,STARLINK-5051,PAYLOAD,2023-12-25 21:22:51,15.08837582,0.0001759,53.2177,306.6586,110.8832,249.2349,-3.0821e-05,-7.79e-06,0.0,0 STARLINK-5051,1 53916U 22119AG  23359.89087941 -.00000779  00000-0 -30821-4 0  9990,2 53916  53.2177 306.6586 0001759 110.8832 249.2349 15.08837582 70625,6917.888,95.438,540.97,538.536,0.0
53916.0,STARLINK-5051,PAYLOAD,2023-12-26 02:09:01,15.08841489,0.0001769,53.2177,305.7665,107.9991,252.1194,2.3956e-05,9.3e-07,0.0,0 STARLINK-5051,1 53916U 22119AG  23360.08959759  .00000093  00000-0  23956-4 0  9996,2 53916  53.2177 305.7665 0001769 107.9991 252.1194 15.08841489 70652,6917.876,95.437,540.965,538.517,0.0
53916.0,STARLINK-5051,PAYLOAD,2023-12-26 19:38:15,15.08840392,0.0001814,53.2178,302.4958,115.8239,244.2941,-6.8483e-05,-1.378e-05,0.0,0 STARLINK-5051,1 53916U 22119AG  23360.81823936 -.00001378  00000-0 -68483-4 0  9997,2 53916  53.2178 302.4958 0001814 115.8239 244.2941 15.08840392 70762,6917.879,95.438,540.999,538.489,0.0
53916.0,STARLINK-5051,PAYLOAD,2023-12-27 03:35:11,15.08842376,0.0001533,53.2172,301.0085,95.9943,264.1224,-1.0833e-05,-4.6e-06,0.0,0 STARLINK-5051,1 53916U 22119AG  23361.14943843 -.00000460  00000-0 -10833-4 0  9991,2 53916  53.2172 301.0085 0001533  95.9943 264.1224 15.08842376 70387,6917.873,95.437,540.799,538.678,0.0
53916.0,STARLINK-5051,PAYLOAD,2023-12-27 05:10:34,15.08845253,0.0001629,53.2177,300.7111,103.2306,256.8868,4.3353e-05,4.02e-06,0.0,0 STARLINK-5051,1 53916U 22119AG  23361.21567803  .00000402  00000-0  43353-4 0  9994,2 53916  53.2177 300.7111 0001629 103.2306 256.8868 15.08845253 70828,6917.864,95.437,540.856,538.602,0.0
53916.0,STARLINK-5051,PAYLOAD,2023-12-28 05:01:21,15.08846312,0.0001654,53.2178,296.2508,105.4117,254.7058,0.00018633,2.679e-05,0.0,0 STARLINK-5051,1 53916U 22119AG  23362.20927909  .00002679  00000-0  18633-3 0  9991,2 53916  53.2178 296.2508 0001654 105.4117 254.7058 15.08846312 70544,6917.861,95.437,540.87,538.582,0.0
53916.0,STARLINK-5051,PAYLOAD,2023-12-29 03:16:46,15.08841213,0.0001851,53.2191,292.0868,74.4346,285.685,7.0084e-05,8.27e-06,0.0,0 STARLINK-5051,1 53916U 22119AG  23363.13664720  .00000827  00000-0  70084-4 0  9995,2 53916  53.2191 292.0868 0001851  74.4346 285.6850 15.08841213 70683,6917.877,95.437,541.022,538.461,0.0
53916.0,STARLINK-5051,PAYLOAD,2023-12-29 04:52:09,15.08844611,0.0001737,53.2187,291.7886,78.7992,281.3195,8.9728e-05,1.14e-05,0.0,0 STARLINK-5051,1 53916U 22119AG  23363.20288451  .00001140  00000-0  89728-4 0  9990,2 53916  53.2187 291.7886 0001737  78.7992 281.3195 15.08844611 71121,6917.866,95.437,540.933,538.53,0.0
53916.0,STARLINK-5051,PAYLOAD,2023-12-30 01:32:09,15.08851066,0.0001774,53.2183,287.9218,72.9486,287.17,0.00010184,1.334e-05,0.0,0 STARLINK-5051,1 53916U 22119AG  23364.06399877  .00001334  00000-0  10184-3 0  9994,2 53916  53.2183 287.9218 0001774  72.9486 287.1700 15.08851066 70822,6917.847,95.437,540.939,538.484,0.0
53916.0,STARLINK-5051,PAYLOAD,2023-12-30 04:42:55,15.08854739,0.0001761,53.2187,287.3252,77.4695,282.6494,0.00014368,2e-05,0.0,0 STARLINK-5051,1 53916U 22119AG  23364.19647532  .00002000  00000-0  14368-3 0  9991,2 53916  53.2187 287.3252 0001761  77.4695 282.6494 15.08854739 71276,6917.835,95.437,540.919,538.482,0.0
53916.0,STARLINK-5051,PAYLOAD,2023-12-31 01:22:56,15.08845361,0.0001658,53.2194,283.4525,112.4257,247.6911,3.2378e-05,2.27e-06,0.0,0 STARLINK-5051,1 53916U 22119AG  23365.05759950  .00000227  00000-0  32378-4 0  9996,2 53916  53.2194 283.4525 0001658 112.4257 247.6911 15.08845361 70975,6917.864,95.437,540.876,538.582,0.0
53916.0,STARLINK-5051,PAYLOAD,2023-12-31 22:02:57,15.08844979,0.0001613,53.2184,279.595,108.6164,251.5003,-4.7055e-05,-1.037e-05,0.0,0 STARLINK-5051,1 53916U 22119AG  23365.91872261 -.00001037  00000-0 -47055-4 0  9992,2 53916  53.2184 279.5950 0001613 108.6164 251.5003 15.08844979 71530,6917.865,95.437,540.846,538.614,0.0
53916.0,STARLINK-5051,PAYLOAD,2024-01-01 04:24:30,15.08846887,0.0001621,53.2179,278.4069,112.1127,248.0038,-4.523e-05,-1.008e-05,0.0,0 STARLINK-5051,1 53916U 22119AG  24001.18368070 -.00001008  00000-0 -45230-4 0  9998,2 53916  53.2179 278.4069 0001621 112.1127 248.0038 15.08846887 71147,6917.859,95.437,540.846,538.603,0.0
53916.0,STARLINK-5051,PAYLOAD,2024-01-01 21:53:44,15.08839824,0.0001551,53.2177,275.1359,102.3042,257.8124,0.00010517,1.386e-05,0.0,0 STARLINK-5051,1 53916U 22119AG  24001.91232210  .00001386  00000-0  10517-3 0  9991,2 53916  53.2177 275.1359 0001551 102.3042 257.8124 15.08839824 71686,6917.881,95.438,540.819,538.673,0.0
